{
    "links": {
        "self": "http://www.neowsapp.com/rest/v1/neo/3785778?api_key=iIulBulltgU6a56xZRHN4H3l9WmuAYTsLGpBGhQ2"
    },
    "id": "3785778",
    "neo_reference_id": "3785778",
    "name": "(2017 TT4)",
    "designation": "2017 TT4",
    "nasa_jpl_url": "http://ssd.jpl.nasa.gov/sbdb.cgi?sstr=3785778",
    "absolute_magnitude_h": 27.1,
    "estimated_diameter": {
        "kilometers": {
            "estimated_diameter_min": 0.0101054342,
            "estimated_diameter_max": 0.0225964377
        },
        "meters": {
            "estimated_diameter_min": 10.1054341542,
            "estimated_diameter_max": 22.5964377109
        },
        "miles": {
            "estimated_diameter_min": 0.0062792237,
            "estimated_diameter_max": 0.0140407711
        },
        "feet": {
            "estimated_diameter_min": 33.1543125905,
            "estimated_diameter_max": 74.1352966996
        }
    },
    "is_potentially_hazardous_asteroid": false,
    "close_approach_data": [
        {
            "close_approach_date": "2017-10-09",
            "close_approach_date_full": "2017-Oct-09 16:33",
            "epoch_date_close_approach": 1507566780000,
            "relative_velocity": {
                "kilometers_per_second": "15.7994775713",
                "kilometers_per_hour": "56878.1192566289",
                "miles_per_hour": "35341.8513792092"
            },
            "miss_distance": {
                "astronomical": "0.0059613951",
                "lunar": "2.3189826939",
                "kilometers": "891812.009188437",
                "miles": "554146.2864049506"
            },
            "orbiting_body": "Earth"
        },
        {
            "close_approach_date": "2017-10-09",
            "close_approach_date_full": "2017-Oct-09 20:40",
            "epoch_date_close_approach": 1507581600000,
            "relative_velocity": {
                "kilometers_per_second": "16.4286836334",
                "kilometers_per_hour": "59143.2610802418",
                "miles_per_hour": "36749.3224195536"
            },
            "miss_distance": {
                "astronomical": "0.0075758425",
                "lunar": "2.9470027325",
                "kilometers": "1133329.901455475",
                "miles": "704218.545716555"
            },
            "orbiting_body": "Moon"
        }
    ],
    "orbital_data": {
        "orbit_id": "2",
        "orbit_determination_date": "2017-10-18 06:22:41",
        "first_observation_date": "2017-10-12",
        "last_observation_date": "2017-10-17",
        "data_arc_in_days": 5,
        "observations_used": 29,
        "orbit_uncertainty": "8",
        "minimum_orbit_intersection": ".00364427",
        "jupiter_tisserand_invariant": "3.241",
        "epoch_osculation": "2458039.5",
        "eccentricity": ".6475078237232451",
        "semi_major_axis": "2.334784066713541",
        "inclination": "7.226545917380929",
        "ascending_node_longitude": "14.32446351166109",
        "orbital_period": "1303.072285942257",
        "perihelion_distance": ".822993116812148",
        "perihelion_argument": "305.24917447",
        "aphelion_distance": "3.846575016614934",
        "perihelion_time": "2457998.006057758997",
        "mean_anomaly": "11.46353841449362",
        "mean_motion": ".2762701684962032",
        "equinox": "J2000",
        "orbit_class": {
            "orbit_class_type": "APO",
            "orbit_class_description": "Near-Earth asteroid orbits which cross the Earth’s orbit similar to that of 1862 Apollo",
            "orbit_class_range": "a (semi-major axis) > 1.0 AU; q (perihelion) < 1.017 AU"
        }
    },
    "is_sentry_object": false
}